{"type": "FeatureCollection", "features": [ {"type": "Feature", "properties": {"norad_id": 35032, "name": "COSMOS 2251 DEB", "group": "cosmos-2251-debris", "lat": -29.480446773536507, "lon": 17.813865448335225, "alt_km": 702.2846753364929, "timestamp": "2025-12-02T08:59:33.110683+00:00", "meta": {"OBJECT_NAME": "COSMOS 2251 DEB", "OBJECT_ID": "1993-036AGV", "EPOCH": "2025-12-01T20:30:35.254080", "MEAN_MOTION": 14.58567497, "ECCENTRICITY": 0.0068987, "INCLINATION": 73.853, "RA_OF_ASC_NODE": 28.2413, "ARG_OF_PERICENTER": 241.2373, "MEAN_ANOMALY": 237.3201, "EPHEMERIS_TYPE": 0, "CLASSIFICATION_TYPE": "U", "NORAD_CAT_ID": 35032, "ELEMENT_SET_NO": 999, "REV_AT_EPOCH": 87515, "BSTAR": 0.0010447, "MEAN_MOTION_DOT": 4.993e-05, "MEAN_MOTION_DDOT": 0}, "tle": {"line1": "1 35032U 93036AGV 25335.85457470  .00004993  00000+0  10447-2 0  9994", "line2": "2 35032  73.8530  28.2413 0068987 241.2373 237.3201 14.58567497875151"}}, "geometry": {"type": "Point", "coordinates": [17.813865448335225, -29.480446773536507]}}, {"type": "Feature", "properties": {"norad_id": 35033, "name": "COSMOS 2251 DEB", "group": "cosmos-2251-debris", "lat": -70.22178555449338, "lon": 143.27613307192527, "alt_km": 720.2668134785908, "timestamp": "2025-12-02T08:59:33.110693+00:00", "meta": {"OBJECT_NAME": "COSMOS 2251 DEB", "OBJECT_ID": "1993-036AGW", "EPOCH": "2025-12-01T21:46:02.379936", "MEAN_MOTION": 14.50844438, "ECCENTRICITY": 0.0014385, "INCLINATION": 74.0263, "RA_OF_ASC_NODE": 196.9584, "ARG_OF_PERICENTER": 303.7279, "MEAN_ANOMALY": 56.251, "EPHEMERIS_TYPE": 0, "CLASSIFICATION_TYPE": "U", "NORAD_CAT_ID": 35033, "ELEMENT_SET_NO": 999, "REV_AT_EPOCH": 65770, "BSTAR": 0.00069995, "MEAN_MOTION_DOT": 2.736e-05, "MEAN_MOTION_DDOT": 0}, "tle": {"line1": "1 35033U 93036AGW 25335.90697199  .00002736  00000+0  69995-3 0  9991", "line2": "2 35033  74.0263 196.9584 0014385 303.7279  56.2510 14.50844438657707"}}, "geometry": {"type": "Point", "coordinates": [143.27613307192527, -70.22178555449338]}}, {"type": "Feature", "properties": {"norad_id": 35037, "name": "COSMOS 2251 DEB", "group": "cosmos-2251-debris", "lat": -67.46617295371075, "lon": 22.54429228399448, "alt_km": 305.4989603260601, "timestamp": "2025-12-02T08:59:33.110702+00:00", "meta": {"OBJECT_NAME": "COSMOS 2251 DEB", "OBJECT_ID": "1993-036AHA", "EPOCH": "2025-11-07T11:23:37.197312", "MEAN_MOTION": 15.53719687, "ECCENTRICITY": 0.0010282, "INCLINATION": 73.9601, "RA_OF_ASC_NODE": 214.7185, "ARG_OF_PERICENTER": 129.4999, "MEAN_ANOMALY": 230.7127, "EPHEMERIS_TYPE": 0, "CLASSIFICATION_TYPE": "U", "NORAD_CAT_ID": 35037, "ELEMENT_SET_NO": 999, "REV_AT_EPOCH": 66656, "BSTAR": 0.0068953187, "MEAN_MOTION_DOT": 0.00469331, "MEAN_MOTION_DDOT": 0}, "tle": {"line1": "1 35037U 93036AHA 25311.47473608  .00469331  00000+0  68953-2 0  9998", "line2": "2 35037  73.9601 214.7185 0010282 129.4999 230.7127 15.53719687666563"}}, "geometry": {"type": "Point", "coordinates": [22.54429228399448, -67.46617295371075]}}, {"type": "Feature", "properties": {"norad_id": 35038, "name": "COSMOS 2251 DEB", "group": "cosmos-2251-debris", "lat": 46.73230276004824, "lon": -136.41609619838073, "alt_km": 792.223812765531, "timestamp": "2025-12-02T08:59:33.110712+00:00", "meta": {"OBJECT_NAME": "COSMOS 2251 DEB", "OBJECT_ID": "1993-036AHB", "EPOCH": "2025-12-01T12:14:35.519712", "MEAN_MOTION": 14.25049374, "ECCENTRICITY": 0.01140704, "INCLINATION": 74.1071, "RA_OF_ASC_NODE": 62.7544, "ARG_OF_PERICENTER": 49.9914, "MEAN_ANOMALY": 325.8758, "EPHEMERIS_TYPE": 0, "CLASSIFICATION_TYPE": "U", "NORAD_CAT_ID": 35038, "ELEMENT_SET_NO": 999, "REV_AT_EPOCH": 85409, "BSTAR": 0.0012889001, "MEAN_MOTION_DOT": 3.209e-05, "MEAN_MOTION_DDOT": 0}, "tle": {"line1": "1 35038U 93036AHB 25335.51013333  .00003209  00000+0  12889-2 0  9990", "line2": "2 35038  74.1071  62.7544 0114070  49.9914 325.8758 14.25049374854091"}}, "geometry": {"type": "Point", "coordinates": [-136.41609619838073, 46.73230276004824]}}, {"type": "Feature", "properties": {"norad_id": 35043, "name": "COSMOS 2251 DEB", "group": "cosmos-2251-debris", "lat": -30.120305144128693, "lon": -104.39499608990008, "alt_km": 618.227880197941, "timestamp": "2025-12-02T08:59:33.110723+00:00", "meta": {"OBJECT_NAME": "COSMOS 2251 DEB", "OBJECT_ID": "1993-036AHG", "EPOCH": "2025-12-01T12:30:27.515520", "MEAN_MOTION": 14.75939938, "ECCENTRICITY": 0.00983873, "INCLINATION": 73.9533, "RA_OF_ASC_NODE": 67.6713, "ARG_OF_PERICENTER": 278.6033, "MEAN_ANOMALY": 80.4003, "EPHEMERIS_TYPE": 0, "CLASSIFICATION_TYPE": "U", "NORAD_CAT_ID": 35043, "ELEMENT_SET_NO": 999, "REV_AT_EPOCH": 67253, "BSTAR": 0.0052130245, "MEAN_MOTION_DOT": 0.00038979, "MEAN_MOTION_DDOT": 0}, "tle": {"line1": "1 35043U 93036AHG 25335.52115180  .00038979  00000+0  52130-2 0  9995", "line2": "2 35043  73.9533  67.6713 0098387 278.6033  80.4003 14.75939938672537"}}, "geometry": {"type": "Point", "coordinates": [-104.39499608990008, -30.120305144128693]}}, {"type": "Feature", "properties": {"norad_id": 35045, "name": "COSMOS 2251 DEB", "group": "cosmos-2251-debris", "lat": -1.7973374506812703, "lon": 70.48636043487092, "alt_km": 798.2011490399918, "timestamp": "2025-12-02T08:59:33.110733+00:00", "meta": {"OBJECT_NAME": "COSMOS 2251 DEB", "OBJECT_ID": "1993-036AHJ", "EPOCH": "2025-11-26T14:07:36.378336", "MEAN_MOTION": 14.00336124, "ECCENTRICITY": 0.01828228, "INCLINATION": 73.7186, "RA_OF_ASC_NODE": 81.2256, "ARG_OF_PERICENTER": 325.5651, "MEAN_ANOMALY": 33.374, "EPHEMERIS_TYPE": 0, "CLASSIFICATION_TYPE": "U", "NORAD_CAT_ID": 35045, "ELEMENT_SET_NO": 999, "REV_AT_EPOCH": 84417, "BSTAR": 0.00067477445, "MEAN_MOTION_DOT": 1.127e-05, "MEAN_MOTION_DDOT": 0}, "tle": {"line1": "1 35045U 93036AHJ 25330.58861549  .00001127  00000+0  67477-3 0  9991", "line2": "2 35045  73.7186  81.2256 0182822 325.5651  33.3740 14.00336124844173"}}, "geometry": {"type": "Point", "coordinates": [70.48636043487092, -1.7973374506812703]}}, {"type": "Feature", "properties": {"norad_id": 35060, "name": "COSMOS 2251 DEB", "group": "cosmos-2251-debris", "lat": 11.664271215126934, "lon": 80.14161067974034, "alt_km": 767.1267445248559, "timestamp": "2025-12-02T08:59:33.110743+00:00", "meta": {"OBJECT_NAME": "COSMOS 2251 DEB", "OBJECT_ID": "1993-036AHP", "EPOCH": "2025-11-28T02:37:07.839264", "MEAN_MOTION": 14.41547968, "ECCENTRICITY": 0.00179641, "INCLINATION": 74.0363, "RA_OF_ASC_NODE": 271.4275, "ARG_OF_PERICENTER": 359.5881, "MEAN_ANOMALY": 0.5257, "EPHEMERIS_TYPE": 0, "CLASSIFICATION_TYPE": "U", "NORAD_CAT_ID": 35060, "ELEMENT_SET_NO": 999, "REV_AT_EPOCH": 87031, "BSTAR": 0.0004076845, "MEAN_MOTION_DOT": 1.301e-05, "MEAN_MOTION_DDOT": 0}, "tle": {"line1": "1 35060U 93036AHP 25332.10911851  .00001301  00000+0  40768-3 0  9998", "line2": "2 35060  74.0363 271.4275 0017964 359.5881   0.5257 14.41547968870310"}}, "geometry": {"type": "Point", "coordinates": [80.14161067974034, 11.664271215126934]}}, {"type": "Feature", "properties": {"norad_id": 35061, "name": "COSMOS 2251 DEB", "group": "cosmos-2251-debris", "lat": 22.249883550302968, "lon": 139.01826856944132, "alt_km": 661.5292552128585, "timestamp": "2025-12-02T08:59:33.110753+00:00", "meta": {"OBJECT_NAME": "COSMOS 2251 DEB", "OBJECT_ID": "1993-036AHQ", "EPOCH": "2025-11-30T23:33:59.477760", "MEAN_MOTION": 14.67665765, "ECCENTRICITY": 0.00387935, "INCLINATION": 74.045, "RA_OF_ASC_NODE": 328.4273, "ARG_OF_PERICENTER": 82.9269, "MEAN_ANOMALY": 277.631, "EPHEMERIS_TYPE": 0, "CLASSIFICATION_TYPE": "U", "NORAD_CAT_ID": 35061, "ELEMENT_SET_NO": 999, "REV_AT_EPOCH": 88402, "BSTAR": 0.00075389945, "MEAN_MOTION_DOT": 4.308e-05, "MEAN_MOTION_DDOT": 0}, "tle": {"line1": "1 35061U 93036AHQ 25334.98193840  .00004308  00000+0  75390-3 0  9996", "line2": "2 35061  74.0450 328.4273 0038793  82.9269 277.6310 14.67665765884023"}}, "geometry": {"type": "Point", "coordinates": [139.01826856944132, 22.249883550302968]}}, {"type": "Feature", "properties": {"norad_id": 35062, "name": "COSMOS 2251 DEB", "group": "cosmos-2251-debris", "lat": 73.4402395333554, "lon": -174.4350775660108, "alt_km": 727.1058695290913, "timestamp": "2025-12-02T08:59:33.110763+00:00", "meta": {"OBJECT_NAME": "COSMOS 2251 DEB", "OBJECT_ID": "1993-036AHR", "EPOCH": "2025-12-01T08:58:12.976320", "MEAN_MOTION": 14.22770227, "ECCENTRICITY": 0.01291712, "INCLINATION": 74.0782, "RA_OF_ASC_NODE": 113.6209, "ARG_OF_PERICENTER": 116.5829, "MEAN_ANOMALY": 244.8622, "EPHEMERIS_TYPE": 0, "CLASSIFICATION_TYPE": "U", "NORAD_CAT_ID": 35062, "ELEMENT_SET_NO": 999, "REV_AT_EPOCH": 85337, "BSTAR": 0.0022023834, "MEAN_MOTION_DOT": 5.359e-05, "MEAN_MOTION_DDOT": 0}, "tle": {"line1": "1 35062U 93036AHR 25335.37376130  .00005359  00000+0  22024-2 0  9998", "line2": "2 35062  74.0782 113.6209 0129171 116.5829 244.8622 14.22770227853379"}}, "geometry": {"type": "Point", "coordinates": [-174.4350775660108, 73.4402395333554]}}, {"type": "Feature", "properties": {"norad_id": 35065, "name": "COSMOS 2251 DEB", "group": "cosmos-2251-debris", "lat": 1.6662683699531136, "lon": -145.8372849912908, "alt_km": 729.4104631035016, "timestamp": "2025-12-02T08:59:33.110773+00:00", "meta": {"OBJECT_NAME": "COSMOS 2251 DEB", "OBJECT_ID": "1993-036AHU", "EPOCH": "2025-11-28T23:36:19.413792", "MEAN_MOTION": 14.45665304, "ECCENTRICITY": 0.00193805, "INCLINATION": 74.0201, "RA_OF_ASC_NODE": 220.0123, "ARG_OF_PERICENTER": 347.0058, "MEAN_ANOMALY": 13.0597, "EPHEMERIS_TYPE": 0, "CLASSIFICATION_TYPE": "U", "NORAD_CAT_ID": 35065, "ELEMENT_SET_NO": 999, "REV_AT_EPOCH": 68152, "BSTAR": 0.00046954745, "MEAN_MOTION_DOT": 1.638e-05, "MEAN_MOTION_DDOT": 0}, "tle": {"line1": "1 35065U 93036AHU 25332.98355803  .00001638  00000+0  46955-3 0  9995", "line2": "2 35065  74.0201 220.0123 0019380 347.0058  13.0597 14.45665304681528"}}, "geometry": {"type": "Point", "coordinates": [-145.8372849912908, 1.6662683699531136]}}]}